STARLINK-32415          
1 61861U 24202S   26068.54148447  .00000482  00000+0  27033-4 0  9993
2 61861  43.0016 238.9403 0001793 270.3936  89.6710 15.27575199 75304
FLOCK 4G-8              
1 62613U 25009E   26068.72381419  .00013559  00000+0  50438-3 0  9996
2 62613  97.4045 151.2834 0003050 315.2538  44.8455 15.27623414 63721
